{"type": "FeatureCollection", "features": [ {"type": "Feature", "properties": {"norad_id": 31328, "name": "FENGYUN 1C DEB", "group": "fengyun-1c-debris", "lat": 39.21369214826949, "lon": 138.30641353719497, "alt_km": 809.9480563353009, "timestamp": "2025-12-03T06:58:43.519745+00:00", "meta": {"OBJECT_NAME": "FENGYUN 1C DEB", "OBJECT_ID": "1999-025BQG", "EPOCH": "2025-12-01T08:56:23.978400", "MEAN_MOTION": 14.28936236, "ECCENTRICITY": 0.01032236, "INCLINATION": 98.482, "RA_OF_ASC_NODE": 309.4463, "ARG_OF_PERICENTER": 250.2116, "MEAN_ANOMALY": 108.7913, "EPHEMERIS_TYPE": 0, "CLASSIFICATION_TYPE": "U", "NORAD_CAT_ID": 31328, "ELEMENT_SET_NO": 999, "REV_AT_EPOCH": 97300, "BSTAR": 0.00010963271, "MEAN_MOTION_DOT": 2.5e-06, "MEAN_MOTION_DDOT": 0}, "tle": {"line1": "1 31328U 99025BQG 25335.37249975  .00000250  00000+0  10963-3 0  9994", "line2": "2 31328  98.4820 309.4463 0103223 250.2116 108.7913 14.28936236973009"}}, "geometry": {"type": "Point", "coordinates": [138.30641353719497, 39.21369214826949]}}, {"type": "Feature", "properties": {"norad_id": 31330, "name": "FENGYUN 1C DEB", "group": "fengyun-1c-debris", "lat": 77.06641114907418, "lon": 97.31611976243755, "alt_km": 547.040684324611, "timestamp": "2025-12-03T06:58:43.519755+00:00", "meta": {"OBJECT_NAME": "FENGYUN 1C DEB", "OBJECT_ID": "1999-025BQJ", "EPOCH": "2025-12-02T16:50:39.866784", "MEAN_MOTION": 15.06052464, "ECCENTRICITY": 0.0010738, "INCLINATION": 98.8856, "RA_OF_ASC_NODE": 139.5789, "ARG_OF_PERICENTER": 236.3303, "MEAN_ANOMALY": 252.9699, "EPHEMERIS_TYPE": 0, "CLASSIFICATION_TYPE": "U", "NORAD_CAT_ID": 31330, "ELEMENT_SET_NO": 999, "REV_AT_EPOCH": 96978, "BSTAR": 0.011876, "MEAN_MOTION_DOT": 0.00177764, "MEAN_MOTION_DDOT": 0}, "tle": {"line1": "1 31330U 99025BQJ 25336.70185031  .00177764  00000+0  11876-1 0  9994", "line2": "2 31330  98.8856 139.5789 0010738 236.3303 252.9699 15.06052464969781"}}, "geometry": {"type": "Point", "coordinates": [97.31611976243755, 77.06641114907418]}}, {"type": "Feature", "properties": {"norad_id": 31331, "name": "FENGYUN 1C DEB", "group": "fengyun-1c-debris", "lat": 2.993112230702581, "lon": 2.931203831807947, "alt_km": 928.8255182454532, "timestamp": "2025-12-03T06:58:43.519765+00:00", "meta": {"OBJECT_NAME": "FENGYUN 1C DEB", "OBJECT_ID": "1999-025BQK", "EPOCH": "2025-12-01T18:57:35.170560", "MEAN_MOTION": 14.00605202, "ECCENTRICITY": 0.00529453, "INCLINATION": 98.8718, "RA_OF_ASC_NODE": 1.9424, "ARG_OF_PERICENTER": 213.0175, "MEAN_ANOMALY": 146.768, "EPHEMERIS_TYPE": 0, "CLASSIFICATION_TYPE": "U", "NORAD_CAT_ID": 31331, "ELEMENT_SET_NO": 999, "REV_AT_EPOCH": 63703, "BSTAR": 0.0004017672, "MEAN_MOTION_DOT": 5.62e-06, "MEAN_MOTION_DDOT": 0}, "tle": {"line1": "1 31331U 99025BQK 25335.78999040  .00000562  00000+0  40177-3 0  9994", "line2": "2 31331  98.8718   1.9424 0052945 213.0175 146.7680 14.00605202637039"}}, "geometry": {"type": "Point", "coordinates": [2.931203831807947, 2.993112230702581]}}, {"type": "Feature", "properties": {"norad_id": 31332, "name": "FENGYUN 1C DEB", "group": "fengyun-1c-debris", "lat": 18.596457533412526, "lon": 170.8597377227348, "alt_km": 865.2644306438515, "timestamp": "2025-12-03T06:58:43.519775+00:00", "meta": {"OBJECT_NAME": "FENGYUN 1C DEB", "OBJECT_ID": "1999-025BQL", "EPOCH": "2025-12-02T12:13:47.686944", "MEAN_MOTION": 14.11789119, "ECCENTRICITY": 0.00503136, "INCLINATION": 98.7069, "RA_OF_ASC_NODE": 347.146, "ARG_OF_PERICENTER": 54.0787, "MEAN_ANOMALY": 98.2514, "EPHEMERIS_TYPE": 0, "CLASSIFICATION_TYPE": "U", "NORAD_CAT_ID": 31332, "ELEMENT_SET_NO": 999, "REV_AT_EPOCH": 95827, "BSTAR": 0.0011045294, "MEAN_MOTION_DOT": 1.996e-05, "MEAN_MOTION_DDOT": 0}, "tle": {"line1": "1 31332U 99025BQL 25336.50957971  .00001996  00000+0  11045-2 0  9996", "line2": "2 31332  98.7069 347.1460 0050313  54.0787  98.2514 14.11789119958273"}}, "geometry": {"type": "Point", "coordinates": [170.8597377227348, 18.596457533412526]}}, {"type": "Feature", "properties": {"norad_id": 31333, "name": "FENGYUN 1C DEB", "group": "fengyun-1c-debris", "lat": -55.37774687663849, "lon": 159.81320330483717, "alt_km": 881.8432824572201, "timestamp": "2025-12-03T06:58:43.519785+00:00", "meta": {"OBJECT_NAME": "FENGYUN 1C DEB", "OBJECT_ID": "1999-025BQM", "EPOCH": "2025-11-27T18:34:18.195744", "MEAN_MOTION": 14.2646395, "ECCENTRICITY": 0.00993772, "INCLINATION": 98.4299, "RA_OF_ASC_NODE": 346.9035, "ARG_OF_PERICENTER": 70.1894, "MEAN_ANOMALY": 290.9968, "EPHEMERIS_TYPE": 0, "CLASSIFICATION_TYPE": "U", "NORAD_CAT_ID": 31333, "ELEMENT_SET_NO": 999, "REV_AT_EPOCH": 96378, "BSTAR": 0.00071340675, "MEAN_MOTION_DOT": 1.769e-05, "MEAN_MOTION_DDOT": 0}, "tle": {"line1": "1 31333U 99025BQM 25331.77382171  .00001769  00000+0  71341-3 0  9999", "line2": "2 31333  98.4299 346.9035 0099377  70.1894 290.9968 14.26463950963786"}}, "geometry": {"type": "Point", "coordinates": [159.81320330483717, -55.37774687663849]}}, {"type": "Feature", "properties": {"norad_id": 31336, "name": "FENGYUN 1C DEB", "group": "fengyun-1c-debris", "lat": -68.52482874044387, "lon": 54.89499204621885, "alt_km": 823.5878376635565, "timestamp": "2025-12-03T06:58:43.519795+00:00", "meta": {"OBJECT_NAME": "FENGYUN 1C DEB", "OBJECT_ID": "1999-025BQQ", "EPOCH": "2025-11-30T09:29:35.254752", "MEAN_MOTION": 14.3865722, "ECCENTRICITY": 0.00936793, "INCLINATION": 98.4666, "RA_OF_ASC_NODE": 29.7908, "ARG_OF_PERICENTER": 155.195, "MEAN_ANOMALY": 267.7339, "EPHEMERIS_TYPE": 0, "CLASSIFICATION_TYPE": "U", "NORAD_CAT_ID": 31336, "ELEMENT_SET_NO": 999, "REV_AT_EPOCH": 97613, "BSTAR": 0.00036728541, "MEAN_MOTION_DOT": 1.14e-05, "MEAN_MOTION_DDOT": 0}, "tle": {"line1": "1 31336U 99025BQQ 25334.39554693  .00001140  00000+0  36729-3 0  9997", "line2": "2 31336  98.4666  29.7908 0093679 155.1950 267.7339 14.38657220976133"}}, "geometry": {"type": "Point", "coordinates": [54.89499204621885, -68.52482874044387]}}, {"type": "Feature", "properties": {"norad_id": 31338, "name": "FENGYUN 1C DEB", "group": "fengyun-1c-debris", "lat": 61.863723741070636, "lon": 14.099827621682165, "alt_km": 769.0220880990864, "timestamp": "2025-12-03T06:58:43.519805+00:00", "meta": {"OBJECT_NAME": "FENGYUN 1C DEB", "OBJECT_ID": "1999-025BQS", "EPOCH": "2025-12-01T07:05:57.780096", "MEAN_MOTION": 14.20532057, "ECCENTRICITY": 0.00715092, "INCLINATION": 98.7164, "RA_OF_ASC_NODE": 175.4621, "ARG_OF_PERICENTER": 142.709, "MEAN_ANOMALY": 217.9082, "EPHEMERIS_TYPE": 0, "CLASSIFICATION_TYPE": "U", "NORAD_CAT_ID": 31338, "ELEMENT_SET_NO": 999, "REV_AT_EPOCH": 63495, "BSTAR": 0.0029930987, "MEAN_MOTION_DOT": 6.56e-05, "MEAN_MOTION_DDOT": 0}, "tle": {"line1": "1 31338U 99025BQS 25335.29580764  .00006560  00000+0  29931-2 0  9994", "line2": "2 31338  98.7164 175.4621 0071509 142.7090 217.9082 14.20532057634951"}}, "geometry": {"type": "Point", "coordinates": [14.099827621682165, 61.863723741070636]}}, {"type": "Feature", "properties": {"norad_id": 31339, "name": "FENGYUN 1C DEB", "group": "fengyun-1c-debris", "lat": 67.24331072226256, "lon": -27.230074650870332, "alt_km": 832.6198208548903, "timestamp": "2025-12-03T06:58:43.519815+00:00", "meta": {"OBJECT_NAME": "FENGYUN 1C DEB", "OBJECT_ID": "1999-025BQT", "EPOCH": "2025-12-01T18:56:46.116960", "MEAN_MOTION": 14.12108361, "ECCENTRICITY": 0.00746195, "INCLINATION": 98.7148, "RA_OF_ASC_NODE": 352.7586, "ARG_OF_PERICENTER": 356.6693, "MEAN_ANOMALY": 3.3973, "EPHEMERIS_TYPE": 0, "CLASSIFICATION_TYPE": "U", "NORAD_CAT_ID": 31339, "ELEMENT_SET_NO": 999, "REV_AT_EPOCH": 95523, "BSTAR": 0.00097185281, "MEAN_MOTION_DOT": 1.787e-05, "MEAN_MOTION_DDOT": 0}, "tle": {"line1": "1 31339U 99025BQT 25335.78942265  .00001787  00000+0  97185-3 0  9990", "line2": "2 31339  98.7148 352.7586 0074619 356.6693   3.3973 14.12108361955235"}}, "geometry": {"type": "Point", "coordinates": [-27.230074650870332, 67.24331072226256]}}, {"type": "Feature", "properties": {"norad_id": 31341, "name": "FENGYUN 1C DEB", "group": "fengyun-1c-debris", "lat": 63.53478057807809, "lon": -142.99184618382887, "alt_km": 715.181743192391, "timestamp": "2025-12-03T06:58:43.519825+00:00", "meta": {"OBJECT_NAME": "FENGYUN 1C DEB", "OBJECT_ID": "1999-025BQV", "EPOCH": "2025-12-01T01:49:28.949664", "MEAN_MOTION": 14.53127184, "ECCENTRICITY": 0.00535606, "INCLINATION": 99.5571, "RA_OF_ASC_NODE": 14.7052, "ARG_OF_PERICENTER": 21.8232, "MEAN_ANOMALY": 32.8382, "EPHEMERIS_TYPE": 0, "CLASSIFICATION_TYPE": "U", "NORAD_CAT_ID": 31341, "ELEMENT_SET_NO": 999, "REV_AT_EPOCH": 97449, "BSTAR": 0.001342002, "MEAN_MOTION_DOT": 5.603e-05, "MEAN_MOTION_DDOT": 0}, "tle": {"line1": "1 31341U 99025BQV 25335.07602951  .00005603  00000+0  13420-2 0  9990", "line2": "2 31341  99.5571  14.7052 0053560  21.8232  32.8382 14.53127184974491"}}, "geometry": {"type": "Point", "coordinates": [-142.99184618382887, 63.53478057807809]}}, {"type": "Feature", "properties": {"norad_id": 31342, "name": "FENGYUN 1C DEB", "group": "fengyun-1c-debris", "lat": 77.04200125652673, "lon": -109.93043882823568, "alt_km": 839.3046491254772, "timestamp": "2025-12-03T06:58:43.519835+00:00", "meta": {"OBJECT_NAME": "FENGYUN 1C DEB", "OBJECT_ID": "1999-025BQW", "EPOCH": "2025-11-29T02:18:53.046720", "MEAN_MOTION": 14.36748173, "ECCENTRICITY": 0.01111347, "INCLINATION": 98.9329, "RA_OF_ASC_NODE": 288.8418, "ARG_OF_PERICENTER": 259.8555, "MEAN_ANOMALY": 99.0079, "EPHEMERIS_TYPE": 0, "CLASSIFICATION_TYPE": "U", "NORAD_CAT_ID": 31342, "ELEMENT_SET_NO": 999, "REV_AT_EPOCH": 97695, "BSTAR": 0.00017184307, "MEAN_MOTION_DOT": 4.93e-06, "MEAN_MOTION_DDOT": 0}, "tle": {"line1": "1 31342U 99025BQW 25333.09644730  .00000493  00000+0  17184-3 0  9996", "line2": "2 31342  98.9329 288.8418 0111134 259.8555  99.0079 14.36748173976958"}}, "geometry": {"type": "Point", "coordinates": [-109.93043882823568, 77.04200125652673]}}]}